NORAD_CAT_ID,OBJECT_NAME,OBJECT_TYPE,EPOCH,MEAN_MOTION,ECCENTRICITY,INCLINATION,RA_OF_ASC_NODE,ARG_OF_PERICENTER,MEAN_ANOMALY,BSTAR,MEAN_MOTION_DOT,MEAN_MOTION_DDOT,TLE_LINE0,TLE_LINE1,TLE_LINE2,SEMIMAJOR_AXIS,PERIOD,APOGEE,PERIGEE,DECAYED
51859.0,STARLINK-3560,PAYLOAD,2024-07-15 04:51:26,15.08837947,0.0001475,53.2165,193.8022,89.0425,271.0736,3.1357e-05,2.11e-06,0.0,0 STARLINK-3560,1 51859U 22022H   24197.20239332  .00000211  00000-0  31357-4 0  9990,2 51859  53.2165 193.8022 0001475  89.0425 271.0736 15.08837947132208,6917.887,95.438,540.772,538.731,0.0
51859.0,STARLINK-3560,PAYLOAD,2024-07-15 09:37:36,15.08839833,0.0001529,53.2171,192.9095,93.988,266.1287,3.1656e-05,2.16e-06,0.0,0 STARLINK-3560,1 51859U 22022H   24197.40111194  .00000216  00000-0  31656-4 0  9994,2 51859  53.2171 192.9095 0001529  93.9880 266.1287 15.08839833132239,6917.881,95.438,540.804,538.688,0.0
51859.0,STARLINK-3560,PAYLOAD,2024-07-16 06:17:36,15.08838775,0.000148,53.2173,189.0439,93.5557,266.5605,3.8302e-05,3.22e-06,0.0,0 STARLINK-3560,1 51859U 22022H   24198.26223224  .00000322  00000-0  38302-4 0  9990,2 51859  53.2173 189.0439 0001480  93.5557 266.5605 15.08838775132369,6917.884,95.438,540.773,538.725,0.0
51859.0,STARLINK-3560,PAYLOAD,2024-07-17 09:19:09,15.08841853,0.000134,53.2168,183.9887,90.7177,269.3969,8.2601e-05,1.027e-05,0.0,0 STARLINK-3560,1 51859U 22022H   24199.38830951  .00001027  00000-0  82601-4 0  9999,2 51859  53.2168 183.9887 0001340  90.7177 269.3969 15.08841853132539,6917.875,95.437,540.667,538.813,0.0
51859.0,STARLINK-3560,PAYLOAD,2024-07-17 15:40:42,15.08843934,0.0001346,53.2169,182.7993,91.1018,269.0128,9.3991e-05,1.208e-05,0.0,0 STARLINK-3560,1 51859U 22022H   24199.65326895  .00001208  00000-0  93991-4 0  9991,2 51859  53.2169 182.7993 0001346  91.1018 269.0128 15.08843934132570,6917.868,95.437,540.665,538.802,0.0
51859.0,STARLINK-3560,PAYLOAD,2024-07-18 05:59:11,15.08830669,0.0001385,53.2171,180.1256,99.9477,260.1671,8.1088e-06,-1.59e-06,0.0,0 STARLINK-3560,1 51859U 22022H   24200.24944124 -.00000159  00000-0  81088-5 0  9990,2 51859  53.2171 180.1256 0001385  99.9477 260.1671 15.08830669132661,6917.909,95.438,540.732,538.816,0.0
51859.0,STARLINK-3560,PAYLOAD,2024-07-18 09:09:57,15.08831333,0.0001423,53.2184,179.5323,104.3588,255.7563,1.1021e-05,-1.13e-06,0.0,0 STARLINK-3560,1 51859U 22022H   24200.38192116 -.00000113  00000-0  11021-4 0  9990,2 51859  53.2184 179.5323 0001423 104.3588 255.7563 15.08831333132680,6917.907,95.438,540.756,538.787,0.0
51859.0,STARLINK-3560,PAYLOAD,2024-07-18 15:31:29,15.08841667,0.0001432,53.2179,178.3409,97.9198,262.1957,6.7106e-05,7.8e-06,0.0,0 STARLINK-3560,1 51859U 22022H   24200.64687350  .00000780  00000-0  67106-4 0  9992,2 51859  53.2179 178.3409 0001432  97.9198 262.1957 15.08841667132725,6917.875,95.437,540.731,538.75,0.0
51859.0,STARLINK-3560,PAYLOAD,2024-07-19 04:14:35,15.08833888,0.0001412,53.2178,175.9614,90.3185,269.7969,-1.5677e-05,-5.37e-06,0.0,0 STARLINK-3560,1 51859U 22022H   24201.17680261 -.00000537  00000-0 -15677-4 0  9993,2 51859  53.2178 175.9614 0001412  90.3185 269.7969 15.08833888132807,6917.899,95.438,540.741,538.787,0.0
51859.0,STARLINK-3560,PAYLOAD,2024-07-19 05:49:58,15.08835669,0.000141,53.2179,175.664,88.8853,271.23,-2.1596e-06,-3.22e-06,0.0,0 STARLINK-3560,1 51859U 22022H   24201.24304131 -.00000322  00000-0 -21596-5 0  9990,2 51859  53.2179 175.6640 0001410  88.8853 271.2300 15.08835669132813,6917.894,95.438,540.734,538.783,0.0
51859.0,STARLINK-3560,PAYLOAD,2024-07-20 04:05:22,15.08838771,0.0001394,53.2178,171.5028,103.0884,257.0264,0.00010996,1.462e-05,0.0,0 STARLINK-3560,1 51859U 22022H   24202.17039671  .00001462  00000-0  10996-3 0  9991,2 51859  53.2178 171.5028 0001394 103.0884 257.0264 15.08838771132955,6917.884,95.438,540.713,538.785,0.0
51859.0,STARLINK-3560,PAYLOAD,2024-07-20 05:40:45,15.08838521,0.0001341,53.2182,171.2043,86.9416,273.1729,0.00011449,1.535e-05,0.0,0 STARLINK-3560,1 51859U 22022H   24202.23663728  .00001535  00000-0  11449-3 0  9999,2 51859  53.2182 171.2043 0001341  86.9416 273.1729 15.08838521132965,6917.885,95.438,540.678,538.822,0.0
51859.0,STARLINK-3560,PAYLOAD,2024-07-20 15:13:03,15.08846661,0.0001411,53.218,169.4195,79.6899,280.4252,8.8816e-05,1.126e-05,0.0,0 STARLINK-3560,1 51859U 22022H   24202.63407308  .00001126  00000-0  88816-4 0  9992,2 51859  53.2180 169.4195 0001411  79.6899 280.4252 15.08846661133026,6917.86,95.437,540.701,538.749,0.0
51859.0,STARLINK-3560,PAYLOAD,2024-07-21 03:56:10,15.08827547,0.0001211,53.2169,167.0402,88.6774,271.4357,3.0307e-05,1.94e-06,0.0,0 STARLINK-3560,1 51859U 22022H   24203.16400821  .00000194  00000-0  30307-4 0  9990,2 51859  53.2169 167.0402 0001211  88.6774 271.4357 15.08827547133105,6917.918,95.438,540.621,538.946,0.0
51859.0,STARLINK-3560,PAYLOAD,2024-07-22 03:46:56,15.08844161,0.0001338,53.2169,162.5756,100.792,259.3222,3.9161e-05,3.35e-06,0.0,0 STARLINK-3560,1 51859U 22022H   24204.15759825  .00000335  00000-0  39161-4 0  9995,2 51859  53.2169 162.5756 0001338 100.7920 259.3222 15.08844161133259,6917.868,95.437,540.658,538.807,0.0
51859.0,STARLINK-3560,PAYLOAD,2024-07-22 21:16:13,15.0881422,0.0001484,53.2163,159.3054,89.4075,270.7087,-3.6378e-05,-8.66e-06,0.0,0 STARLINK-3560,1 51859U 22022H   24204.88626777 -.00000866  00000-0 -36378-4 0  9992,2 51859  53.2163 159.3054 0001484  89.4075 270.7087 15.08814220133365,6917.959,95.439,540.851,538.798,0.0
51859.0,STARLINK-3560,PAYLOAD,2024-07-23 03:37:44,15.08840924,0.0001539,53.2172,158.1174,98.0479,262.0688,0.00013028,1.786e-05,0.0,0 STARLINK-3560,1 51859U 22022H   24205.15120980  .00001786  00000-0  13028-3 0  9994,2 51859  53.2172 158.1174 0001539  98.0479 262.0688 15.08840924133406,6917.878,95.437,540.807,538.678,0.0
51859.0,STARLINK-3560,PAYLOAD,2024-07-24 01:53:08,15.0884235,0.0001606,53.2181,153.9532,104.4372,255.6798,6.6597e-05,7.72e-06,0.0,0 STARLINK-3560,1 51859U 22022H   24206.07857225  .00000772  00000-0  66597-4 0  9999,2 51859  53.2181 153.9532 0001606 104.4372 255.6798 15.08842350133546,6917.873,95.437,540.849,538.627,0.0
51859.0,STARLINK-3560,PAYLOAD,2024-07-24 20:57:46,15.08847896,0.000182,53.2186,150.3852,125.578,234.5382,6.3881e-05,7.29e-06,0.0,0 STARLINK-3560,1 51859U 22022H   24206.87345043  .00000729  00000-0  63881-4 0  9992,2 51859  53.2186 150.3852 0001820 125.5780 234.5382 15.08847896133660,6917.856,95.437,540.98,538.462,0.0
51859.0,STARLINK-3560,PAYLOAD,2024-07-25 01:43:55,15.08851393,0.0001494,53.218,149.4924,110.9537,249.1615,8.2163e-05,1.02e-05,0.0,0 STARLINK-3560,1 51859U 22022H   24207.07216727  .00001020  00000-0  82163-4 0  9990,2 51859  53.2180 149.4924 0001494 110.9537 249.1615 15.08851393133699,6917.846,95.437,540.744,538.677,0.0
51859.0,STARLINK-3560,PAYLOAD,2024-07-26 04:45:28,15.08841529,0.0001039,53.2165,144.4404,88.0638,272.0473,1.683e-05,-2e-07,0.0,0 STARLINK-3560,1 51859U 22022H   24208.19825138 -.00000020  00000-0  16830-4 0  9994,2 51859  53.2165 144.4404 0001039  88.0638 272.0473 15.08841529133868,6917.876,95.437,540.459,539.022,0.0
51859.0,STARLINK-3560,PAYLOAD,2024-07-26 12:42:23,15.08847869,7.25e-05,53.2172,142.9539,87.8737,272.2338,0.00015621,2.2e-05,0.0,0 STARLINK-3560,1 51859U 22022H   24208.52943607  .00002200  00000-0  15621-3 0  9990,2 51859  53.2172 142.9539 0000725  87.8737 272.2338 15.08847869133917,6917.856,95.437,540.223,539.22,0.0
51859.0,STARLINK-3560,PAYLOAD,2024-07-26 22:14:43,15.0883608,9.83e-05,53.2172,141.1678,79.9804,280.1299,3.4043e-05,2.54e-06,0.0,0 STARLINK-3560,1 51859U 22022H   24208.92688890  .00000254  00000-0  34043-4 0  9991,2 51859  53.2172 141.1678 0000983  79.9804 280.1299 15.08836080133978,6917.892,95.438,540.437,539.077,0.0
51859.0,STARLINK-3560,PAYLOAD,2024-07-27 22:05:31,15.08825386,0.0001351,53.218,136.7104,93.041,267.0737,-6.5452e-05,-1.329e-05,0.0,0 STARLINK-3560,1 51859U 22022H   24209.92049835 -.00001329  00000-0 -65452-4 0  9996,2 51859  53.2180 136.7104 0001351  93.0410 267.0737 15.08825386134127,6917.925,95.438,540.725,538.855,0.0
51859.0,STARLINK-3560,PAYLOAD,2024-07-28 02:51:40,15.08830808,9.62e-05,53.2171,135.8189,85.3352,274.775,-2.4989e-05,-6.85e-06,0.0,0 STARLINK-3560,1 51859U 22022H   24210.11921334 -.00000685  00000-0 -24989-4 0  9996,2 51859  53.2171 135.8189 0000962  85.3352 274.7750 15.08830808134154,6917.908,95.438,540.439,539.108,0.0
51859.0,STARLINK-3560,PAYLOAD,2024-07-28 18:45:31,15.08818571,0.0001219,53.2173,132.8463,82.2814,277.8317,0.00014126,1.96e-05,0.0,0 STARLINK-3560,1 51859U 22022H   24210.78160884  .00001960  00000-0  14126-3 0  9990,2 51859  53.2173 132.8463 0001219  82.2814 277.8317 15.08818571134250,6917.946,95.439,540.654,538.968,0.0
51859.0,STARLINK-3560,PAYLOAD,2024-07-29 12:14:45,15.08832082,0.0001142,53.2183,129.5728,93.1767,266.9356,0.00027581,4.103e-05,0.0,0 STARLINK-3560,1 51859U 22022H   24211.51024346  .00004103  00000-0  27581-3 0  9995,2 51859  53.2183 129.5728 0001142  93.1767 266.9356 15.08832082134368,6917.905,95.438,540.56,538.98,0.0
51859.0,STARLINK-3560,PAYLOAD,2024-07-29 21:47:04,15.08832649,0.0001444,53.219,127.7904,92.4301,267.6856,0.00016611,2.356e-05,0.0,0 STARLINK-3560,1 51859U 22022H   24211.90769027  .00002356  00000-0  16611-3 0  9990,2 51859  53.2190 127.7904 0001444  92.4301 267.6856 15.08832649134422,6917.903,95.438,540.767,538.769,0.0
51859.0,STARLINK-3560,PAYLOAD,2024-07-30 00:57:50,15.088335,0.0001395,53.2185,127.1961,91.4744,268.6408,0.00017504,2.498e-05,0.0,0 STARLINK-3560,1 51859U 22022H   24212.04016997  .00002498  00000-0  17504-3 0  9996,2 51859  53.2185 127.1961 0001395  91.4744 268.6408 15.08833500134441,6917.9,95.438,540.73,538.8,0.0
51859.0,STARLINK-3560,PAYLOAD,2024-07-30 18:27:04,15.08842948,0.0001307,53.218,123.9221,103.3147,256.7991,0.00015102,2.117e-05,0.0,0 STARLINK-3560,1 51859U 22022H   24212.76880341  .00002117  00000-0  15102-3 0  9997,2 51859  53.2180 123.9221 0001307 103.3147 256.7991 15.08842948134555,6917.871,95.437,540.641,538.832,0.0
